[
    {
        "CCSDS_OMM_VERS": "2.0",
        "COMMENT": "GENERATED VIA SPACE-TRACK.ORG API",
        "CREATION_DATE": "2024-01-01T18:41:16",
        "ORIGINATOR": "18 SPCS",
        "OBJECT_NAME": "VANGUARD 1",
        "OBJECT_ID": "1958-002B",
        "CENTER_NAME": "EARTH",
        "REF_FRAME": "TEME",
        "TIME_SYSTEM": "UTC",
        "MEAN_ELEMENT_THEORY": "SGP4",
        "EPOCH": "2024-01-01T14:00:09.618624",
        "MEAN_MOTION": "10.85148598",
        "ECCENTRICITY": "0.18417610",
        "INCLINATION": "34.2388",
        "RA_OF_ASC_NODE": "203.8241",
        "ARG_OF_PERICENTER": "52.7504",
        "MEAN_ANOMALY": "322.7325",
        "EPHEMERIS_TYPE": "0",
        "CLASSIFICATION_TYPE": "U",
        "NORAD_CAT_ID": "5",
        "ELEMENT_SET_NO": "999",
        "REV_AT_EPOCH": "34571",
        "BSTAR": "0.00038316000000",
        "MEAN_MOTION_DOT": "0.00000278",
        "MEAN_MOTION_DDOT": "0.0000000000000",
        "SEMIMAJOR_AXIS": "8618.050",
        "PERIOD": "132.701",
        "APOAPSIS": "3827.154",
        "PERIAPSIS": "652.677",
        "OBJECT_TYPE": "PAYLOAD",
        "RCS_SIZE": "SMALL",
        "COUNTRY_CODE": "US",
        "LAUNCH_DATE": "1958-03-17",
        "SITE": "AFETR",
        "DECAY_DATE": null,
        "FILE": "4150923",
        "GP_ID": "246007535",
        "TLE_LINE0": "0 VANGUARD 1",
        "TLE_LINE1": "1 00005U 58002B   24001.58344466  .00000278  00000-0  38316-3 0  9998",
        "TLE_LINE2": "2 00005  34.2388 203.8241 1841761  52.7504 322.7325 10.85148598345719"
    },
    {
        "CCSDS_OMM_VERS": "2.0",
        "COMMENT": "GENERATED VIA SPACE-TRACK.ORG API",
        "CREATION_DATE": "2024-01-02T17:56:16",
        "ORIGINATOR": "18 SPCS",
        "OBJECT_NAME": "VANGUARD 2",
        "OBJECT_ID": "1959-001A",
        "CENTER_NAME": "EARTH",
        "REF_FRAME": "TEME",
        "TIME_SYSTEM": "UTC",
        "MEAN_ELEMENT_THEORY": "SGP4",
        "EPOCH": "2024-01-02T13:47:41.784288",
        "MEAN_MOTION": "11.87489748",
        "ECCENTRICITY": "0.14587950",
        "INCLINATION": "32.8659",
        "RA_OF_ASC_NODE": "232.1086",
        "ARG_OF_PERICENTER": "4.0267",
        "MEAN_ANOMALY": "357.0744",
        "EPHEMERIS_TYPE": "0",
        "CLASSIFICATION_TYPE": "U",
        "NORAD_CAT_ID": "11",
        "ELEMENT_SET_NO": "999",
        "REV_AT_EPOCH": "42869",
        "BSTAR": "0.00060753000000",
        "MEAN_MOTION_DOT": "0.00001141",
        "MEAN_MOTION_DDOT": "0.0000000000000",
        "SEMIMAJOR_AXIS": "8115.500",
        "PERIOD": "121.264",
        "APOAPSIS": "2921.250",
        "PERIAPSIS": "553.480",
        "OBJECT_TYPE": "PAYLOAD",
        "RCS_SIZE": "MEDIUM",
        "COUNTRY_CODE": "US",
        "LAUNCH_DATE": "1959-02-17",
        "SITE": "AFETR",
        "DECAY_DATE": null,
        "FILE": "4151729",
        "GP_ID": "246083141",
        "TLE_LINE0": "0 VANGUARD 2",
        "TLE_LINE1": "1 00011U 59001A   24002.57478917  .00001141  00000-0  60753-3 0  9994",
        "TLE_LINE2": "2 00011  32.8659 232.1086 1458795   4.0267 357.0744 11.87489748428693"
    },
    {
        "CCSDS_OMM_VERS": "2.0",
        "COMMENT": "GENERATED VIA SPACE-TRACK.ORG API",
        "CREATION_DATE": "2024-01-02T17:56:16",
        "ORIGINATOR": "18 SPCS",
        "OBJECT_NAME": "VANGUARD R/B",
        "OBJECT_ID": "1959-001B",
        "CENTER_NAME": "EARTH",
        "REF_FRAME": "TEME",
        "TIME_SYSTEM": "UTC",
        "MEAN_ELEMENT_THEORY": "SGP4",
        "EPOCH": "2024-01-02T14:52:34.577760",
        "MEAN_MOTION": "11.45914292",
        "ECCENTRICITY": "0.16589370",
        "INCLINATION": "32.8960",
        "RA_OF_ASC_NODE": "139.2621",
        "ARG_OF_PERICENTER": "45.5880",
        "MEAN_ANOMALY": "326.9098",
        "EPHEMERIS_TYPE": "0",
        "CLASSIFICATION_TYPE": "U",
        "NORAD_CAT_ID": "12",
        "ELEMENT_SET_NO": "999",
        "REV_AT_EPOCH": "42831",
        "BSTAR": "0.00017209000000",
        "MEAN_MOTION_DOT": "0.00000282",
        "MEAN_MOTION_DDOT": "0.0000000000000",
        "SEMIMAJOR_AXIS": "8310.626",
        "PERIOD": "125.664",
        "APOAPSIS": "3311.172",
        "PERIAPSIS": "553.811",
        "OBJECT_TYPE": "ROCKET BODY",
        "RCS_SIZE": "MEDIUM",
        "COUNTRY_CODE": "US",
        "LAUNCH_DATE": "1959-02-17",
        "SITE": "AFETR",
        "DECAY_DATE": null,
        "FILE": "4151729",
        "GP_ID": "246083641",
        "TLE_LINE0": "0 VANGUARD R/B",
        "TLE_LINE1": "1 00012U 59001B   24002.61984465  .00000282  00000-0  17209-3 0  9993",
        "TLE_LINE2": "2 00012  32.8960 139.2621 1658937  45.5880 326.9098 11.45914292428319"
    },
    {
        "CCSDS_OMM_VERS": "2.0",
        "COMMENT": "GENERATED VIA SPACE-TRACK.ORG API",
        "CREATION_DATE": "2024-01-02T17:56:16",
        "ORIGINATOR": "18 SPCS",
        "OBJECT_NAME": "VANGUARD R/B",
        "OBJECT_ID": "1958-002A",
        "CENTER_NAME": "EARTH",
        "REF_FRAME": "TEME",
        "TIME_SYSTEM": "UTC",
        "MEAN_ELEMENT_THEORY": "SGP4",
        "EPOCH": "2024-01-02T02:02:19.306752",
        "MEAN_MOTION": "10.49023142",
        "ECCENTRICITY": "0.20218340",
        "INCLINATION": "34.2792",
        "RA_OF_ASC_NODE": "19.0076",
        "ARG_OF_PERICENTER": "292.8485",
        "MEAN_ANOMALY": "47.1593",
        "EPHEMERIS_TYPE": "0",
        "CLASSIFICATION_TYPE": "U",
        "NORAD_CAT_ID": "16",
        "ELEMENT_SET_NO": "999",
        "REV_AT_EPOCH": "59466",
        "BSTAR": "0.00084268000000",
        "MEAN_MOTION_DOT": "0.00000615",
        "MEAN_MOTION_DDOT": "0.0000000000000",
        "SEMIMAJOR_AXIS": "8814.786",
        "PERIOD": "137.271",
        "APOAPSIS": "4218.855",
        "PERIAPSIS": "654.448",
        "OBJECT_TYPE": "ROCKET BODY",
        "RCS_SIZE": "MEDIUM",
        "COUNTRY_CODE": "US",
        "LAUNCH_DATE": "1958-03-17",
        "SITE": "AFETR",
        "DECAY_DATE": null,
        "FILE": "4151729",
        "GP_ID": "246083142",
        "TLE_LINE0": "0 VANGUARD R/B",
        "TLE_LINE1": "1 00016U 58002A   24002.08494568  .00000615  00000-0  84268-3 0  9997",
        "TLE_LINE2": "2 00016  34.2792  19.0076 2021834 292.8485  47.1593 10.49023142594662"
    },
    {
        "CCSDS_OMM_VERS": "2.0",
        "COMMENT": "GENERATED VIA SPACE-TRACK.ORG API",
        "CREATION_DATE": "2024-01-02T17:56:16",
        "ORIGINATOR": "18 SPCS",
        "OBJECT_NAME": "ECHO 1 DEB (METAL OBJ)",
        "OBJECT_ID": "1960-009C",
        "CENTER_NAME": "EARTH",
        "REF_FRAME": "TEME",
        "TIME_SYSTEM": "UTC",
        "MEAN_ELEMENT_THEORY": "SGP4",
        "EPOCH": "2024-01-02T04:54:12.289824",
        "MEAN_MOTION": "12.18315025",
        "ECCENTRICITY": "0.01087180",
        "INCLINATION": "47.2149",
        "RA_OF_ASC_NODE": "304.8147",
        "ARG_OF_PERICENTER": "48.3483",
        "MEAN_ANOMALY": "312.6554",
        "EPHEMERIS_TYPE": "0",
        "CLASSIFICATION_TYPE": "U",
        "NORAD_CAT_ID": "51",
        "ELEMENT_SET_NO": "999",
        "REV_AT_EPOCH": "82181",
        "BSTAR": "0.00099980000000",
        "MEAN_MOTION_DOT": "0.00000017",
        "MEAN_MOTION_DDOT": "0.0000000000000",
        "SEMIMAJOR_AXIS": "7978.026",
        "PERIOD": "118.196",
        "APOAPSIS": "1686.626",
        "PERIAPSIS": "1513.155",
        "OBJECT_TYPE": "DEBRIS",
        "RCS_SIZE": "MEDIUM",
        "COUNTRY_CODE": "US",
        "LAUNCH_DATE": "1960-08-12",
        "SITE": "AFETR",
        "DECAY_DATE": null,
        "FILE": "4151729",
        "GP_ID": "246083146",
        "TLE_LINE0": "0 ECHO 1 DEB (METAL OBJ)",
        "TLE_LINE1": "1 00051U 60009C   24002.20430891  .00000017  00000-0  99980-3 0  9992",
        "TLE_LINE2": "2 00051  47.2149 304.8147 0108718  48.3483 312.6554 12.18315025821811"
    },
    {
        "CCSDS_OMM_VERS": "2.0",
        "COMMENT": "GENERATED VIA SPACE-TRACK.ORG API",
        "CREATION_DATE": "2024-01-02T17:56:16",
        "ORIGINATOR": "18 SPCS",
        "OBJECT_NAME": "ECHO 1 DEB (METAL OBJ)",
        "OBJECT_ID": "1960-009E",
        "CENTER_NAME": "EARTH",
        "REF_FRAME": "TEME",
        "TIME_SYSTEM": "UTC",
        "MEAN_ELEMENT_THEORY": "SGP4",
        "EPOCH": "2024-01-02T00:02:54.553920",
        "MEAN_MOTION": "12.17319196",
        "ECCENTRICITY": "0.00984330",
        "INCLINATION": "47.2746",
        "RA_OF_ASC_NODE": "229.7087",
        "ARG_OF_PERICENTER": "305.0308",
        "MEAN_ANOMALY": "54.1276",
        "EPHEMERIS_TYPE": "0",
        "CLASSIFICATION_TYPE": "U",
        "NORAD_CAT_ID": "53",
        "ELEMENT_SET_NO": "999",
        "REV_AT_EPOCH": "82613",
        "BSTAR": "0.00062651000000",
        "MEAN_MOTION_DOT": "-0.00000021",
        "MEAN_MOTION_DDOT": "0.0000000000000",
        "SEMIMAJOR_AXIS": "7982.376",
        "PERIOD": "118.293",
        "APOAPSIS": "1682.814",
        "PERIAPSIS": "1525.668",
        "OBJECT_TYPE": "DEBRIS",
        "RCS_SIZE": "MEDIUM",
        "COUNTRY_CODE": "US",
        "LAUNCH_DATE": "1960-08-12",
        "SITE": "AFETR",
        "DECAY_DATE": null,
        "FILE": "4151729",
        "GP_ID": "246083147",
        "TLE_LINE0": "0 ECHO 1 DEB (METAL OBJ)",
        "TLE_LINE1": "1 00053U 60009E   24002.00202030 -.00000021  00000-0  62651-3 0  9995",
        "TLE_LINE2": "2 00053  47.2746 229.7087 0098433 305.0308  54.1276 12.17319196826136"
    }
]